OBJECT_NAME,OBJECT_ID,EPOCH,MEAN_MOTION,ECCENTRICITY,INCLINATION,RA_OF_ASC_NODE,ARG_OF_PERICENTER,MEAN_ANOMALY,EPHEMERIS_TYPE,CLASSIFICATION_TYPE,NORAD_CAT_ID,ELEMENT_SET_NO,REV_AT_EPOCH,BSTAR,MEAN_MOTION_DOT,MEAN_MOTION_DDOT
LEMUR-2-ALISIA,2025-009DB,2026-06-10T11:26:43.543104,15.02674727,.0001219,97.6967,243.6925,188.3896,171.7308,0,U,62706,999,9915,.53483E-3,.7077E-4,0
LEMUR-2-ROUNDTRIPPER,2025-009DG,2026-06-10T12:08:42.759744,15.03678332,.0004618,97.7249,244.1948,152.6216,207.5254,0,U,62711,999,7662,.57995E-3,.7889E-4,0
LEMUR-2-MYNAMEISJEFF,2025-009DH,2026-06-10T04:07:21.836064,15.03687489,.0002813,97.7295,244.2378,179.4497,180.6731,0,U,62712,999,7657,.59455E-3,.809E-4,0
LEMUR-2-LEIA-PHILIP,2025-052AN,2026-06-09T15:38:34.813248,14.97296809,.00020453,97.6847,52.7292,240.9218,119.1799,0,U,63246,999,6754,.18203018E-3,.2053E-4,0
LEMUR-2-LIA-MARTIN,2025-052AQ,2026-06-10T06:15:04.412736,14.97749506,.0002473,97.6915,53.7922,167.0129,193.1157,0,U,63248,999,6764,.39877E-3,.4621E-4,0
LEMUR-2-DELOITTE-1,2025-052BB,2026-06-10T05:39:43.547616,14.97549341,.0002724,97.6924,54.0968,111.2651,248.8863,0,U,63259,999,6765,.3055E-3,.3508E-4,0
LEMUR-2-EMERSONROSE,2025-052BD,2026-06-10T06:49:58.338336,14.99033318,.0002259,97.6904,54.6910,68.6672,291.4791,0,U,63261,999,6770,.25634E-3,.305E-4,0
LEMUR-2-MARACHE-FRAN,2025-052BE,2026-06-10T11:09:19.080288,15.00031062,.0006077,97.6954,55.1700,45.0881,315.0835,0,U,63262,999,6775,.41735E-3,.5138E-4,0
LEMUR-2-THEFALCONER,2025-052BG,2026-06-10T11:05:01.126176,14.97347706,.0003449,97.6884,53.9471,54.6793,305.4751,0,U,63264,999,6768,.30428E-3,.3475E-4,0
LEMUR-2-UNTITLED-SC,2025-061A,2026-06-10T11:27:02.080224,15.13424570,.0017068,97.5629,136.8878,290.3097,69.6300,0,U,63351,999,6657,.19771E-3,.3476E-4,0
LEMUR-2-ESPERANZA,2025-061B,2026-06-10T04:33:53.508960,15.13517589,.0016592,97.5637,136.6951,290.8274,69.1180,0,U,63352,999,6653,.17116E-3,.3008E-4,0
LEMUR-2-KREMPEL-BRO2,2025-061C,2026-06-09T21:19:45.585984,15.13949569,.00175301,97.5684,136.9196,283.4459,76.4818,0,U,63353,999,6650,.21109343E-3,.3773E-4,0
LEMUR-2-THERMORAPTOR,2025-061D,2026-06-10T11:11:01.137696,15.14033443,.0017165,97.5690,137.5679,280.2186,79.7110,0,U,63354,999,6659,.19955E-3,.357E-4,0
LEMUR-2-NEUROSPICY,2025-061E,2026-06-10T05:45:28.294848,15.14145542,.0015028,97.5615,136.9747,285.3271,74.6300,0,U,63355,999,6656,.17963E-3,.3215E-4,0
LEMUR-2-TILLINFINITY,2025-061F,2026-06-10T11:25:29.676288,15.14734058,.0016218,97.5601,137.4951,270.9166,89.0207,0,U,63356,999,6662,.20573E-3,.3756E-4,0
LEMUR-2-KREMPEL-BRO1,2025-061G,2026-06-10T04:25:29.726976,15.14537477,.00168304,97.5602,137.1232,273.4183,86.5124,0,U,63357,999,6657,.17323858E-3,.3135E-4,0
LEMUR-2-LANGER2SPACE,2025-061H,2026-06-10T11:22:17.036256,15.14236035,.0014924,97.5607,137.2275,282.4888,77.4674,0,U,63358,999,6660,.20388E-3,.3668E-4,0
LEMUR-2-BALTO,2025-052BH,2026-06-10T04:22:54.511104,15.00010105,.00067092,97.6888,54.8741,75.2833,284.9133,0,U,63395,999,6771,.43347239E-3,.5336E-4,0
LEMUR-2-KRISH,2025-135AK,2026-06-10T02:51:19.700928,14.96138537,.00013728,97.7724,276.0451,108.0984,252.0386,0,U,64561,999,5286,.41845395E-3,.4653E-4,0
LEMUR-2-HUBBLE-4,2025-135AP,2026-06-10T02:24:07.965216,14.93177056,.00014557,97.7691,275.0926,349.4194,10.6995,0,U,64565,999,5281,.10884013E-3,.108E-4,0
LEMUR-2-SEJONG-2,2025-135BL,2026-06-10T05:14:09.148416,14.96646531,.00044131,97.7685,276.2878,11.3073,348.8247,0,U,64586,999,5290,.32573825E-3,.3657E-4,0
LEMUR-2-HUBBLE-5,2025-135BT,2026-06-10T07:50:09.460032,14.94114676,.0005611,97.7711,275.9387,17.2157,342.9252,0,U,64840,999,5288,.1678E-3,.1737E-4,0
LEMUR-2-KARENDARRELL,2025-135BU,2026-06-10T07:32:28.881024,15.00010918,.0009221,97.7668,277.5351,228.7394,131.3036,0,U,64841,999,5298,.56869E-3,.7023E-4,0
LEMUR-2-LUCILLE-ROSE,2025-135BV,2026-06-09T06:54:08.182944,15.00053411,.00106985,97.7767,276.5201,313.8437,46.1901,0,U,65403,999,4745,.48608724E-3,.6001E-4,0
LEMUR-2-AFFIE-WAUWIE,2025-248C,2026-06-10T06:03:03.284640,15.26939127,.0008368,45.3855,152.5549,38.3394,321.8088,0,U,66295,999,3353,.48614E-3,.12829E-3,0
LEMUR-2-DEANANDMAEVE,2025-276N,2026-06-10T11:12:14.080032,15.19650373,.0006362,97.4214,235.0542,36.8396,323.3275,0,U,66678,999,2939,.28787E-3,.6073E-4,0
LEMUR-2-STAS-GORBUK,2025-276W,2026-06-10T03:36:42.856992,15.19305724,.0005807,97.4248,234.7986,37.9658,322.1985,0,U,66686,999,2934,.26379E-3,.5503E-4,0
LEMUR-2-TEODOR,2025-276DG,2026-06-10T11:18:08.308800,15.20977088,.0001946,97.4153,235.3417,122.1767,237.9658,0,U,66768,999,2942,.24609E-3,.5385E-4,0
LEMUR-2-LAILA,2025-276DQ,2026-06-10T12:16:42.130272,15.21197236,.0001781,97.4177,235.4983,144.5467,215.5887,0,U,66776,999,2943,.22736E-3,.5002E-4,0
LEMUR-2-CELIJO-SB-PK,2025-276DW,2026-06-10T10:22:18.427872,14.99890406,.000889,97.5278,232.4306,148.5978,211.5778,0,U,66781,999,2161,.44011E-3,.5406E-4,0
